#cP2023  5 16  0  0  0.00000000      96 ORBIT IGS20 HLM  IGS
## 2262 172800.00000000   900.00000000 60080 0.0000000000000
+   32   G01G02G03G04G05G06G07G08G09G10G11G12G13G14G15G16G17
+        G18G19G20G21G22G23G24G25G26G27G28G29G30G31G32  0  0
+          0  0  0  0  0  0  0  0  0  0  0  0  0  0  0  0  0
+          0  0  0  0  0  0  0  0  0  0  0  0  0  0  0  0  0
+          0  0  0  0  0  0  0  0  0  0  0  0  0  0  0  0  0
++         2  2  2  2  2  2  2  2  2  2  2  2  2  2  2  2  2
++         2  2  2  2  2  2  2  2  3  2  2  2  2  2  2  0  0
++         0  0  0  0  0  0  0  0  0  0  0  0  0  0  0  0  0
++         0  0  0  0  0  0  0  0  0  0  0  0  0  0  0  0  0
++         0  0  0  0  0  0  0  0  0  0  0  0  0  0  0  0  0
%c G  cc GPS ccc cccc cccc cccc cccc ccccc ccccc ccccc ccccc
%c cc cc ccc ccc cccc cccc cccc cccc ccccc ccccc ccccc ccccc
%f  1.2500000  1.025000000  0.00000000000  0.000000000000000
%f  0.0000000  0.000000000  0.00000000000  0.000000000000000
%i    0    0    0    0      0      0      0      0         0
%i    0    0    0    0      0      0      0      0         0
/* RAPID ORBIT COMBINATION FROM WEIGHTED AVERAGE OF:        
/* cod emr esa gfz grg jpl ngs sio usn whu                  
/* REFERENCED TO IGS TIME (IGST) AND TO WEIGHTED MEAN POLE: 
/* PCV:IGS20_2233 OL/AL:FES2014b NONE     Y  ORB:CMB CLK:CMB
*  2023  5 16  4 30  0.00000000
PG01 -14736.937361    312.314631  21790.008538    185.018934  6  6  5 122       
PG02 -11881.047890 -23738.665329   3808.232267   -595.760968  3  7  3  62       
PG03 -21122.146724  10183.523129  12225.182166   -301.963914  6  6  6 109       
PG04 -24223.217885   1125.754774 -10955.068995     42.614584  7  6  6 113       
PG05  15251.299360   4973.768859 -21361.748561   -127.368061  4  5  4 100       
PG06   4759.662990  25821.479567   3694.138522    588.005028  4  5  4 115       
PG07  -8962.298422  16237.380793 -18370.017408    177.133104  6  5  3 120       
PG08 -25990.398450  -6367.559728  -1063.337552   -122.636834  5  6  5  90       
PG09 -17012.347841   9408.257727 -18186.213838   -157.869393  4  5  4 102       
PG10   7579.633860 -21370.518513  13748.269676    -37.108190  4  5  4  78       
PG11  12540.704830  20866.425294 -10659.687720   -198.514887  6  6  4 112       
PG12  21430.785283  -6451.485546  13956.261471   -376.576776     5  5  84       
PG13  21937.884613  13668.774974  -6740.210285    520.565971  5  6  4 105       
PG14 -10704.003191  21585.615259  11018.960244     58.389629  7 10  6  84       
PG15  26472.982533   3448.332971  -1097.829372     39.944467  2  5  4  95       
PG16 -12427.344713  -9263.484874 -21908.062468   -500.623009  8  8  4  83       
PG17  -1882.464242  15167.199245  22144.811615    714.952340  5  8  6  88       
PG18   6765.001186 -19172.964441 -17008.612578   -268.119978  5  9  6  91       
PG19   8094.255437  16627.524444  18950.447973    317.490940  3  7  5 101       
PG20   9192.904082  13342.984500 -21041.468496    433.340840  5  6    112       
PG21 -17509.696831  -8687.193275  18906.000028    153.795069  5  7  3  80       
PG22 -11164.832921 -16808.349464  17803.926688    482.055021  4  5  3  67       
PG23  16418.125437 -20635.067585   2390.398854     24.573987  5  8  1  94       
PG24  17105.566301   3692.606996  19732.046049   -190.321416  4  3     86       
PG25  19965.213747 -16573.671414   4649.759679    443.128473  8  8  8  77       
PG26  -2767.994247 -18467.241166 -18879.180658    240.734432  5  6  7  76       
PG27 -20488.353985 -13047.361265 -11470.409588     36.566495  5  6  6  82       
PG28  -4442.058155 -25606.901537   5469.250436     77.917823  3  5  2  88       
PG29  19945.666901  -5428.496292 -16785.031080   -599.577214  5  5  5  93       
PG30  -1433.849306  24057.124504 -10746.988276   -516.933937  2  7  4 113       
PG31 -10256.677017 -23695.074599  -5333.575706   -216.200871  5  8  2  81       
PG32  -2039.927076 -15888.832227  21395.553248   -477.570099  2  5  5  67       
*  2023  5 16  4 45  0.00000000
PG01 -15457.937814  -2103.669913  21223.089463    185.016387  6  5  5 117       
PG02 -11770.771117 -24014.636837    972.652683   -595.757308  2  7  3  87       
PG03 -20215.054698   8913.447665  14522.056911   -301.953763  5  6  6 109       
PG04 -25245.121778    650.743164  -8400.448983     42.623343  7  6  5  99       
PG05  13740.699196   6880.287389 -21845.809599   -127.369030  5  5  4  97       
PG06   4417.363339  25323.616005   6532.707100    588.004740  4  5  4 118       
PG07  -9819.727146  14117.580663 -19652.627756    177.124523  6  5  3 109       
PG08 -25682.222311  -6544.933931  -3873.343453   -122.637377  5  6  5 103       
PG09 -18920.854918   8891.299662 -16477.625333   -157.861817  5  4  4 106       
PG10   8660.385578 -22307.795882  11358.273617    -37.109508  4  5  4  78       
PG11  12613.923886  21956.727023  -8074.561804   -198.527403  6  7  4 112       
PG12  20296.692171  -5089.348650  16027.799326   -376.580880     5  5  89       
PG13  21027.990234  13551.736369  -9400.232870    520.570880  5  6  4 108       
PG14 -11670.908213  22212.473478   8486.192832     58.401096  7 11  5  78       
PG15  26218.893061   3744.120761  -3861.239684     39.947422  2  5  5  93       
PG16 -10637.954491 -10931.582835 -22043.022280   -500.620261  9  8  4 102       
PG17  -4242.089935  14529.913579  22256.846959    714.953885  5  8  6  87       
PG18   7493.871695 -17258.399693 -18685.101699   -268.134136  5  8  6  87       
PG19   5904.245565  16011.156448  20206.149925    317.495617  3  8  5  97       
PG20   7867.041659  15307.945774 -20244.476766    433.338870  6  6    112       
PG21 -18191.082755 -10509.647668  17291.591516    153.794541  5  7  3  82       
PG22  -9179.797656 -16338.563359  19334.323341    482.060589  4  5  3  85       
PG23  16663.320065 -20569.623420   -497.661369     24.576810  4  8  1  96       
PG24  17876.928326   5817.690044  18559.487324   -190.333870  4  4     93       
PG25  19702.636417 -15832.224589   7392.429423    443.130850  8  8  8  80       
PG26  -1344.611343 -19986.431493 -17389.889932    240.733991  6  6  7  90       
PG27 -19089.716750 -12923.859547 -13798.622240     36.559271  5  6  6  78       
PG28  -3946.261577 -24954.115294   8181.885626     77.920817  2  5  2  93       
PG29  21625.927134  -4794.595680 -14778.021315   -599.578353  5  5  5  82       
PG30  -2133.813246  22817.871341 -13082.146367   -516.931974  2  7  4 114       
PG31 -10095.701092 -24199.142385  -2512.227318   -216.201598  5  8  3 103       
PG32    349.925141 -15439.622911  21800.859361   -477.578374  3  4  5  79       
*  2023  5 16  5  0  0.00000000
PG01 -16281.478124  -4390.075152  20281.771527    185.013821  6  6  5 122       
PG02 -11530.853561 -24012.354616  -1879.243249   -595.754032  2  8  4  86       
PG03 -19224.643678   7401.302106  16565.550469   -301.943610  5  6  5 117       
PG04 -25998.553060    284.061949  -5702.117090     42.632138  7  5  5 107       
PG05  12314.008245   8892.887719 -21960.218670   -127.370471  5  5  3 100       
PG06   3934.105904  24550.743076   9258.376537    588.004440  4  6  4 110       
PG07 -10824.859953  11925.052242 -20579.507357    177.116365  6  5  3 128       
PG08 -25074.859361  -6700.659998  -6618.342366   -122.639556  5  6  5 107       
PG09 -20646.643275   8499.265631 -14487.343122   -157.854263  5  4  4  99       
PG10   9515.526613 -23080.766297   8771.235281    -37.110560  5  5  4  71       
PG11  12648.730868  22756.804350  -5350.744549   -198.539844  6  8  4 114       
PG12  19085.755092  -3505.279214  17817.129004   -376.584888     5  5  92       
PG13  19835.284607  13401.941174 -11901.431879    520.575686  5  6  3  99       
PG14 -12414.554341  22661.424009   5806.182208     58.412586  7 11  4  91       
PG15  25675.271286   4045.418183  -6559.737859     39.950337  2  5  4  98       
PG16  -8941.446222 -12692.590799 -21809.008393   -500.617431  9  8  4  95       
PG17  -6624.731082  14026.283340  22000.875878    714.954860  6  8  6  89       
PG18   8384.668116 -15225.726800 -20038.490229   -268.148326  4  8  6  86       
PG19   3561.381987  15482.235420  21109.726461    317.500223  3  8  5  95       
PG20   6695.749969  17239.514465 -19099.583576    433.337293  5  6  2 112       
PG21 -18884.690757 -12118.514430  15400.362493    153.794128  4  8  3  91       
PG22  -7025.428873 -15940.939813  20545.379624    482.066745  4  6  3  86       
PG23  16715.346615 -20254.383115  -3377.075898     24.579550  4  9  2 102       
PG24  18679.684366   7762.532417  17062.348299   -190.346345  3  5     88       
PG25  19290.795679 -14834.695437  10004.551272    443.133204  8  8  7  77       
PG26    -97.941928 -21421.427048 -15600.234911    240.733481  6  6  7  68       
PG27 -17441.836139 -12841.032494 -15897.392416     36.552092  5  6  6  87       
PG28  -3297.328627 -24053.710179  10753.632385     77.923888  2  5  3  86       
PG29  23103.156104  -4306.860180 -12518.627995   -599.579503  5  5  4  84       
PG30  -2981.575803  21377.623711 -15187.750399   -516.929947  2  7  4 109       
PG31  -9846.591722 -24406.757361    353.425507   -216.202199  4  8  3  84       
PG32   2786.355829 -15112.688832  21837.580084   -477.586595  3  4  5  58       
EOF
